{"type": "FeatureCollection", "features": [ {"type": "Feature", "properties": {"norad_id": 44804, "name": "CARTOSAT-3", "group": "resource", "lat": -4.431555495832184, "lon": -126.39907978106558, "alt_km": 517.5272141555724, "timestamp": "2025-12-20T16:47:35.949195+00:00", "meta": {"OBJECT_NAME": "CARTOSAT-3", "OBJECT_ID": "2019-081A", "EPOCH": "2025-12-20T11:14:35.686176", "MEAN_MOTION": 15.19212948, "ECCENTRICITY": 0.0013966, "INCLINATION": 97.4579, "RA_OF_ASC_NODE": 53.9543, "ARG_OF_PERICENTER": 58.988, "MEAN_ANOMALY": 301.2725, "EPHEMERIS_TYPE": 0, "CLASSIFICATION_TYPE": "U", "NORAD_CAT_ID": 44804, "ELEMENT_SET_NO": 999, "REV_AT_EPOCH": 33633, "BSTAR": 0.00018164, "MEAN_MOTION_DOT": 3.764e-05, "MEAN_MOTION_DDOT": 0}, "tle": {"line1": "1 44804U 19081A   25354.46846859  .00003764  00000+0  18164-3 0  9990", "line2": "2 44804  97.4579  53.9543 0013966  58.9880 301.2725 15.19212948336335"}}, "geometry": {"type": "Point", "coordinates": [-126.39907978106558, -4.431555495832184]}}, {"type": "Feature", "properties": {"norad_id": 44819, "name": "GAOFEN-12 01", "group": "resource", "lat": -81.1342002935146, "lon": 119.10646402711035, "alt_km": 634.1750908675585, "timestamp": "2025-12-20T16:47:35.949205+00:00", "meta": {"OBJECT_NAME": "GAOFEN-12 01", "OBJECT_ID": "2019-082A", "EPOCH": "2025-12-20T12:21:09.706752", "MEAN_MOTION": 14.80665746, "ECCENTRICITY": 0.0001828, "INCLINATION": 97.8124, "RA_OF_ASC_NODE": 0.5916, "ARG_OF_PERICENTER": 194.8013, "MEAN_ANOMALY": 165.3147, "EPHEMERIS_TYPE": 0, "CLASSIFICATION_TYPE": "U", "NORAD_CAT_ID": 44819, "ELEMENT_SET_NO": 999, "REV_AT_EPOCH": 32765, "BSTAR": 5.0981e-05, "MEAN_MOTION_DOT": 3.41e-06, "MEAN_MOTION_DDOT": 0}, "tle": {"line1": "1 44819U 19082A   25354.51469568  .00000341  00000+0  50981-4 0  9993", "line2": "2 44819  97.8124   0.5916 0001828 194.8013 165.3147 14.80665746327652"}}, "geometry": {"type": "Point", "coordinates": [119.10646402711035, -81.1342002935146]}}, {"type": "Feature", "properties": {"norad_id": 44873, "name": "CSG-1", "group": "resource", "lat": 58.474852256257435, "lon": 162.85414461150336, "alt_km": 615.9811767946694, "timestamp": "2025-12-20T16:47:35.949215+00:00", "meta": {"OBJECT_NAME": "CSG-1", "OBJECT_ID": "2019-092A", "EPOCH": "2025-12-20T11:39:56.286432", "MEAN_MOTION": 14.82149952, "ECCENTRICITY": 0.0001476, "INCLINATION": 97.8803, "RA_OF_ASC_NODE": 175.6935, "ARG_OF_PERICENTER": 85.985, "MEAN_ANOMALY": 274.1531, "EPHEMERIS_TYPE": 0, "CLASSIFICATION_TYPE": "U", "NORAD_CAT_ID": 44873, "ELEMENT_SET_NO": 999, "REV_AT_EPOCH": 32500, "BSTAR": 5.8752e-05, "MEAN_MOTION_DOT": 4.16e-06, "MEAN_MOTION_DDOT": 0}, "tle": {"line1": "1 44873U 19092A   25354.48606813  .00000416  00000+0  58752-4 0  9993", "line2": "2 44873  97.8803 175.6935 0001476  85.9850 274.1531 14.82149952325000"}}, "geometry": {"type": "Point", "coordinates": [162.85414461150336, 58.474852256257435]}}, {"type": "Feature", "properties": {"norad_id": 46277, "name": "NEMO-HD", "group": "resource", "lat": 81.05025239508976, "lon": 0.08557548887895682, "alt_km": 436.50409473308264, "timestamp": "2025-12-20T16:47:35.949225+00:00", "meta": {"OBJECT_NAME": "NEMO-HD", "OBJECT_ID": "2020-061F", "EPOCH": "2025-12-20T11:45:00.588096", "MEAN_MOTION": 15.40476125, "ECCENTRICITY": 0.0001371, "INCLINATION": 97.2202, "RA_OF_ASC_NODE": 53.4894, "ARG_OF_PERICENTER": 51.7257, "MEAN_ANOMALY": 308.4113, "EPHEMERIS_TYPE": 0, "CLASSIFICATION_TYPE": "U", "NORAD_CAT_ID": 46277, "ELEMENT_SET_NO": 999, "REV_AT_EPOCH": 29443, "BSTAR": 0.0001824, "MEAN_MOTION_DOT": 7.309e-05, "MEAN_MOTION_DDOT": 0}, "tle": {"line1": "1 46277U 20061F   25354.48959014  .00007309  00000+0  18240-3 0  9990", "line2": "2 46277  97.2202  53.4894 0001371  51.7257 308.4113 15.40476125294439"}}, "geometry": {"type": "Point", "coordinates": [0.08557548887895682, 81.05025239508976]}}, {"type": "Feature", "properties": {"norad_id": 46984, "name": "SENTINEL-6A", "group": "resource", "lat": 64.74414452929679, "lon": -143.74138736534027, "alt_km": 1336.4477285153307, "timestamp": "2025-12-20T16:47:35.949236+00:00", "meta": {"OBJECT_NAME": "SENTINEL-6A", "OBJECT_ID": "2020-086A", "EPOCH": "2025-12-20T10:44:46.006080", "MEAN_MOTION": 12.80930851, "ECCENTRICITY": 0.0007715, "INCLINATION": 66.0394, "RA_OF_ASC_NODE": 146.2981, "ARG_OF_PERICENTER": 269.3182, "MEAN_ANOMALY": 90.6949, "EPHEMERIS_TYPE": 0, "CLASSIFICATION_TYPE": "U", "NORAD_CAT_ID": 46984, "ELEMENT_SET_NO": 999, "REV_AT_EPOCH": 23743, "BSTAR": -3.1256e-05, "MEAN_MOTION_DOT": -6.8e-07, "MEAN_MOTION_DDOT": 0}, "tle": {"line1": "1 46984U 20086A   25354.44775470 -.00000068  00000+0 -31256-4 0  9990", "line2": "2 46984  66.0394 146.2981 0007715 269.3182  90.6949 12.80930851237436"}}, "geometry": {"type": "Point", "coordinates": [-143.74138736534027, 64.74414452929679]}}, {"type": "Feature", "properties": {"norad_id": 48079, "name": "GAOFEN-12 02", "group": "resource", "lat": -78.94181292927772, "lon": 34.580029636579994, "alt_km": 636.9719530566208, "timestamp": "2025-12-20T16:47:35.949246+00:00", "meta": {"OBJECT_NAME": "GAOFEN-12 02", "OBJECT_ID": "2021-026A", "EPOCH": "2025-12-20T12:17:57.359616", "MEAN_MOTION": 14.80683589, "ECCENTRICITY": 0.0003603, "INCLINATION": 97.9854, "RA_OF_ASC_NODE": 348.4815, "ARG_OF_PERICENTER": 85.554, "MEAN_ANOMALY": 274.6083, "EPHEMERIS_TYPE": 0, "CLASSIFICATION_TYPE": "U", "NORAD_CAT_ID": 48079, "ELEMENT_SET_NO": 999, "REV_AT_EPOCH": 25532, "BSTAR": 5.1168e-05, "MEAN_MOTION_DOT": 3.41e-06, "MEAN_MOTION_DDOT": 0}, "tle": {"line1": "1 48079U 21026A   25354.51246944  .00000341  00000+0  51168-4 0  9995", "line2": "2 48079  97.9854 348.4815 0003603  85.5540 274.6083 14.80683589255323"}}, "geometry": {"type": "Point", "coordinates": [34.580029636579994, -78.94181292927772]}}, {"type": "Feature", "properties": {"norad_id": 48268, "name": "PLEIADES NEO 3", "group": "resource", "lat": 12.759175992552365, "lon": 65.2262407390248, "alt_km": 625.0414220278681, "timestamp": "2025-12-20T16:47:35.949256+00:00", "meta": {"OBJECT_NAME": "PLEIADES NEO 3", "OBJECT_ID": "2021-034A", "EPOCH": "2025-12-20T11:52:22.831680", "MEAN_MOTION": 14.81673753, "ECCENTRICITY": 0.0001365, "INCLINATION": 97.8951, "RA_OF_ASC_NODE": 66.8249, "ARG_OF_PERICENTER": 90.2404, "MEAN_ANOMALY": 269.8965, "EPHEMERIS_TYPE": 0, "CLASSIFICATION_TYPE": "U", "NORAD_CAT_ID": 48268, "ELEMENT_SET_NO": 999, "REV_AT_EPOCH": 25119, "BSTAR": 8.746e-05, "MEAN_MOTION_DOT": 6.36e-06, "MEAN_MOTION_DDOT": 0}, "tle": {"line1": "1 48268U 21034A   25354.49470870  .00000636  00000+0  87460-4 0  9999", "line2": "2 48268  97.8951  66.8249 0001365  90.2404 269.8965 14.81673753251196"}}, "geometry": {"type": "Point", "coordinates": [65.2262407390248, 12.759175992552365]}}, {"type": "Feature", "properties": {"norad_id": 49070, "name": "PLEIADES NEO 4", "group": "resource", "lat": -13.087464017570365, "lon": -114.8256671635985, "alt_km": 628.810525533092, "timestamp": "2025-12-20T16:47:35.949266+00:00", "meta": {"OBJECT_NAME": "PLEIADES NEO 4", "OBJECT_ID": "2021-073E", "EPOCH": "2025-12-20T11:03:44.352864", "MEAN_MOTION": 14.81672836, "ECCENTRICITY": 0.0001328, "INCLINATION": 97.8952, "RA_OF_ASC_NODE": 66.7877, "ARG_OF_PERICENTER": 91.1715, "MEAN_ANOMALY": 268.965, "EPHEMERIS_TYPE": 0, "CLASSIFICATION_TYPE": "U", "NORAD_CAT_ID": 49070, "ELEMENT_SET_NO": 999, "REV_AT_EPOCH": 23490, "BSTAR": -1.3896e-05, "MEAN_MOTION_DOT": -1.61e-06, "MEAN_MOTION_DDOT": 0}, "tle": {"line1": "1 49070U 21073E   25354.46093001 -.00000161  00000+0 -13896-4 0  9995", "line2": "2 49070  97.8952  66.7877 0001328  91.1715 268.9650 14.81672836234901"}}, "geometry": {"type": "Point", "coordinates": [-114.8256671635985, -13.087464017570365]}}, {"type": "Feature", "properties": {"norad_id": 49260, "name": "LANDSAT 9", "group": "resource", "lat": -46.330961359786656, "lon": -126.00235780613129, "alt_km": 709.8806746425298, "timestamp": "2025-12-20T16:47:35.949276+00:00", "meta": {"OBJECT_NAME": "LANDSAT 9", "OBJECT_ID": "2021-088A", "EPOCH": "2025-12-20T04:13:07.784256", "MEAN_MOTION": 14.57105039, "ECCENTRICITY": 0.0001104, "INCLINATION": 98.2085, "RA_OF_ASC_NODE": 62.1788, "ARG_OF_PERICENTER": 91.1503, "MEAN_ANOMALY": 268.9822, "EPHEMERIS_TYPE": 0, "CLASSIFICATION_TYPE": "U", "NORAD_CAT_ID": 49260, "ELEMENT_SET_NO": 999, "REV_AT_EPOCH": 22493, "BSTAR": 7.8911172e-05, "MEAN_MOTION_DOT": 3.1e-06, "MEAN_MOTION_DDOT": 0}, "tle": {"line1": "1 49260U 21088A   25354.17578454  .00000310  00000+0  78911-4 0  9993", "line2": "2 49260  98.2085  62.1788 0001104  91.1503 268.9822 14.57105039224934"}}, "geometry": {"type": "Point", "coordinates": [-126.00235780613129, -46.330961359786656]}}, {"type": "Feature", "properties": {"norad_id": 51444, "name": "CSG-2", "group": "resource", "lat": -58.615548608026586, "lon": -17.21994189166488, "alt_km": 630.5763923751974, "timestamp": "2025-12-20T16:47:35.949286+00:00", "meta": {"OBJECT_NAME": "CSG-2", "OBJECT_ID": "2022-008A", "EPOCH": "2025-12-20T12:28:32.602656", "MEAN_MOTION": 14.82149469, "ECCENTRICITY": 0.0001419, "INCLINATION": 97.8797, "RA_OF_ASC_NODE": 175.7251, "ARG_OF_PERICENTER": 84.6855, "MEAN_ANOMALY": 275.452, "EPHEMERIS_TYPE": 0, "CLASSIFICATION_TYPE": "U", "NORAD_CAT_ID": 51444, "ELEMENT_SET_NO": 999, "REV_AT_EPOCH": 21012, "BSTAR": 5.2819e-06, "MEAN_MOTION_DOT": -1e-07, "MEAN_MOTION_DDOT": 0}, "tle": {"line1": "1 51444U 22008A   25354.51982179 -.00000010  00000+0  52819-5 0  9992", "line2": "2 51444  97.8797 175.7251 0001419  84.6855 275.4520 14.82149469210125"}}, "geometry": {"type": "Point", "coordinates": [-17.21994189166488, -58.615548608026586]}}]}